#dP2021  5 31  0  0  0.00000000      97 __u+U IGS14 FIT  IAC
## 2160  86400.00000000   900.00000000 59365 0.0000000000000
+  122   C01C02C04C05C06C07C08C09C10C11C12C13C14C16C19C20C21
+        C22C23C24C25C26C27C28C29C30C32C33C34C35C36C37C38C39
+        C40C41C42C43C44C45C46C60E01E02E03E04E05E07E08E09E11
+        E12E13E14E15E18E19E21E24E25E26E27E30E31E33E36G01G02
+        G03G04G05G06G07G08G09G10G12G13G14G15G16G17G18G19G20
+        G21G22G23G24G25G26G27G28G29G30G31G32J01J02J03J07R01
+        R02R03R04R05R07R08R09R11R12R13R14R15R16R17R18R19R20
+        R21R22R24  0  0  0  0  0  0  0  0  0  0  0  0  0  0
++        13 12 13 13  9  9 10  8  8  8  8 12  8  9  7  7  7
++         7  7  7  7  7  7  7  7  7  7  7  7  7  7  7  8  8
++         8  7  7  7  8  7  7 17  4  4  4  4  4  4  4  4  4
++         4  4  4  4  4  4  4  4  4  4  4  4  4  5  4  3  3
++         3  3  3  3  3  3  3  3  4  3  3  4  3  3  3  4  3
++         3  3  3  3  3  3  3  4  3  3  3  3  8  8  8 13  7
++         5  5  5  6  5  5  5  7  5  7  5  5  7  6  6  7  7
++         5  7  5  0  0  0  0  0  0  0  0  0  0  0  0  0  0
%c M  cc GPS ccc cccc cccc cccc cccc ccccc ccccc ccccc ccccc
%c cc cc ccc ccc cccc cccc cccc cccc ccccc ccccc ccccc ccccc
%f  1.2500000  1.025000000  0.00000000000  0.000000000000000
%f  0.0000000  0.000000000  0.00000000000  0.000000000000000
%i    0    0    0    0      0      0      0      0         0
%i    0    0    0    0      0      0      0      0         0
/* INFORMATION & ANALYSIS CENTER (IAC)            FINAL DATA
/* S/V CLOCKS ARE ALIGNED TO GNSS TIME                      
/* G:C1WC2W R:C1PC2P E:C1XC5X C:C2IC6I J:C1CC2S             
/* PCV:IGS14_2148 OL/AL:FES2004  NONE     YN ORB:CoN CLK:CoN
*  2021 05 31 19 15  0.00000000
PC01 -34382.252844  24433.929476    -77.230783   -414.134009
PC02   4455.121212  41946.436189     53.419120    631.983486
PC04 -39627.720600  14435.460988   -556.882130     61.178122
PC05  21900.302161  36072.463788    193.475976   -111.362548
PC06 -19296.769054  21770.780663  30834.624408    448.981634
PC07 -19864.170299  37495.700054   1763.496439    122.371853
PC08  -4452.684215  28136.719955 -30845.922268   -891.859792
PC09  -2408.460605  24563.106375  34489.816071    482.549530
PC10  -8265.264002  39754.903129 -12005.190103    -35.548401
PC11 -11465.388664  12886.464285 -21891.496571    373.062536
PC12 -25811.720244   3347.627152 -10062.281635    861.430725
PC13   5254.237526  35429.400430 -21949.611941    282.324344
PC14 -14539.784226  23632.406570   3303.050384    884.136159
PC16 -16399.621123  22128.585394  31994.502583   -870.564005
PC19   7209.654225 -24027.387490 -12170.725935    855.465154
PC20  18737.548036 -20148.893022   4565.682708   -894.085594
PC21 -19650.436541   4014.371357 -19392.027726   -937.479319
PC22  -8891.701194 -14060.225084 -22392.136454   -952.541414
PC23  14682.932256  22850.656493  -6403.816468   -921.914196
PC24 -11593.212552  12794.730352  21914.720398   -873.267120
PC25   3398.352781  25605.080692  10535.969775   -908.407146
PC26 -18403.590349  -5667.699892  20201.895079    899.213534
PC27  27742.568684   2904.747781   1090.692872    540.780306
PC28  19036.048487  13295.312743 -15478.871066    -67.809100
PC29    205.233709 -15912.260261  22911.904110    399.842788
PC30  20237.257367  -9660.518020  16614.655715    469.021092
PC32  19619.413354  -4084.861703  19434.214788   -928.129245
PC33  -7114.296961  24117.411652  12138.445752   -936.643200
PC34 -19604.202775  10064.315715 -17120.153048   -660.858152
PC35 -19166.134451 -12807.170335  15693.600543   -254.820323
PC36  -2551.171372 -25583.718477 -10819.742437   -726.823839
PC37  18353.654828   7020.533060 -19789.674673   -882.537926
PC38  -2356.698083  31869.457092 -27408.506844    152.320171
PC39 -12848.019375  23474.100650  32560.649573     31.467532
PC40 -16718.529967  37645.206369  -9317.178119    166.454981
PC41   8729.500536  14351.065058  22337.538735   -945.263089
PC42 -18981.652217  19791.029696  -5183.310127   -913.574123
PC43   -874.354854  15989.497382 -22865.773763   -755.522699
PC44 -27796.381569  -2055.025473   -937.486909    216.169081
PC45 -14764.007123 -22766.570084   6558.427424    454.970576
PC46  10813.156668 -13792.965369 -21714.571731    245.443241
PC60   7256.713199  41516.660496  -1778.172067 999999.999999
PE01 -15132.737144  -9791.826307  23480.225760  -1119.544950
PE02  15170.380183   9634.912183 -23519.030268    222.925323
PE03  23836.257623   2097.025747  17420.597865   -436.961121
PE04 -26807.251206  12536.386070   -693.913305   -782.697287
PE05   6822.947585  15707.948217  24152.080069   -276.579146
PE07  13980.753159 -20007.240805 -16725.235090   -544.369589
PE08  26653.257303 -12851.860672    407.242281   5993.298329
PE09 -13771.492589  20014.275122  16932.556168   5649.118995
PE11  -2985.130372  16930.260971 -24111.491897   5910.046984
PE12 -20893.376127   2461.582782 -20818.377265   5183.015322
PE13   3358.899488 -16633.777729  24250.367271    417.141201
PE14 -23804.947627  15838.819806 -12988.909468  -1450.256604
PE15  20848.086698  -2486.317003  20869.265186    811.298604
PE18  23893.493999  -7144.543261   3133.324951  -1587.991620
PE19 -22447.980707  -3776.833287 -18908.874588    290.789247
PE21  -6378.206177 -26214.945412  12174.996319   -668.061568
PE24  -7086.945564  27765.995711   7363.721101   -930.041593
PE25   6251.612872  26324.205649 -11998.906254   -535.524245
PE26 -16608.776304 -21019.119834  12587.657340   1746.401036
PE27   6446.316317 -28126.122687  -6609.533007    -44.377037
PE30  15733.805698 -12394.441548 -21806.389984   2900.623038
PE31 -15399.303050  13483.631904  21389.603480   -481.731215
PE33 -26024.350341 -13091.541321  -5213.846816   -469.214205
PE36  16085.559555  20968.671811 -13345.450884   -214.674815
PG01  21371.742704  12922.646153   9271.967256    672.611118
PG02 -10464.830737 -20971.569079  13093.806970   -608.761315
PG03  13968.685317   5646.068221  21792.106267   -179.239127
PG04  24017.035418   2383.600142  11165.729095   -198.355294
PG05  -7441.941107 -19558.900366 -16406.327917    -43.584110
PG06    579.954693 -17890.866546  19659.812992     21.606408
PG07  18739.384709     46.312532 -18656.141439    166.137134
PG08  17552.382993   8093.239072 -18360.610430    -23.351864
PG09  25664.708156  -6841.305521    793.747468   -348.699001
PG10 -11685.645575  22160.049720  -8284.937880   -133.136130
PG12 -12619.757827  -8403.515928  21568.789585    -48.681884
PG13  -8837.000646 -13558.326870 -21216.636964    139.015536
PG14  12964.570997 -21580.324223  -8424.767327     77.373149
PG15 -18746.506872  -6989.584807 -17995.320093   -145.562425
PG16   1618.665711  22650.041654 -13632.998098   -334.003275
PG17  18591.661582 -13338.591111  13912.661934    451.239136
PG18 -16341.837060   3516.769587 -20667.413172    348.666163
PG19  10793.708196 -14640.005740  19023.249611      7.342455
PG20 -11252.291757 -16344.621422 -17780.379244    521.630199
PG21  21426.890102  16041.242549   2524.593713    121.962749
PG22  11276.825822  15715.292757  18475.813702   -600.202861
PG23 -15374.499943  13168.204316 -17188.281194    101.616338
PG24 -21768.136992 -15035.491027   3868.953352    109.185392
PG25 -15994.822340   5562.368735  20128.205454    147.492549
PG26  -3090.486979  26008.639236  -3464.552444     92.515535
PG27   6238.241329  13767.025208 -22039.330523   -139.520603
PG28  10187.210298 -24545.339278  -1592.181030    562.262921
PG29 -26211.582697   4281.231512   1187.067839   -356.480641
PG30   9547.340846 -12618.371494 -21254.164443   -433.228623
PG31   1400.240166  19512.315587  17665.155488   -120.454574
PG32 -15759.417293  15304.331056  14919.500267     19.929147
PJ01 -29661.729168  30045.049847   3859.772708   -387.800725
PJ02 -26891.317458  26326.510792  24018.421279     -0.078891
PJ03 -31116.081822  16674.474257 -18375.362715     -6.843332
PJ07 -25390.833594  33668.485052      1.525305     -0.014251
PR01 -19765.264528  11569.272427 -11243.547651     80.225664
PR02 -14134.800510  18998.683129   9454.491763    480.708723
PR03    121.106371  13821.153312  21475.256754     36.904050
PR04  13910.567428    822.947553  21398.534048     89.253220
PR05  20155.174160 -12529.619808   9393.958674     72.751595
PR07   -575.254275 -13474.818604 -21617.320463    -42.410415
PR08 -14010.370737   -797.903147 -21236.397121    -59.288379
PR09   1746.318269 -21399.918412 -13697.118189     -4.364055
PR11 -12053.520324 -13432.760627  18030.290933     -8.194456
PR12  -9813.156072   5809.034783  22841.686010    233.440509
PR13  -1907.750186  21014.817524  14319.427426    -55.567004
PR14   7285.682501  24237.278024  -3249.173801     64.845368
PR15  11980.364049  13143.454756 -18267.546881    103.525791
PR16   9436.044306  -7334.589431 -22570.415635    -15.772403
PR17  11878.778235  12630.876515 -18691.776150    428.755414
PR18  23301.401638   9503.733638  -4337.057385     78.458794
PR19  22590.847779   2402.553917  11592.401862   -145.923707
PR20   7381.748812  -8230.448730  22992.666343    -50.087897
PR21 -13045.718606 -12618.604817  17928.132348   -213.113507
PR22 -23507.518432  -9198.468961   3266.459412   -115.429274
PR24  -6623.054471   9098.294504 -22881.895440     44.783380
EOF
